IRIDIUM 57              
1 25273U 98019B   25010.52967586  .00000564  00000+0  18886-3 0  9990
2 25273  86.3961 211.2497 0001941  90.1687 269.9731 14.35680281402377
IRIDIUM 63              
1 25286U 98021B   25010.60776506  .00000858  00000+0  28715-3 0  9994
2 25286  86.4021 148.2108 0002156  90.7250 269.4194 14.36313436401225
IRIDIUM 69              
1 25319U 98026A   25010.40642593  .00001142  00000+0  35173-3 0  9995
2 25319  86.4013 162.0430 0002960 143.2978 216.8425 14.40663102400347
IRIDIUM 71              
1 25320U 98026B   25009.94962268  .00001004  00000+0  30727-3 0  9995
2 25320  86.4011 156.9612 0000818 181.9558 178.1638 14.40895787400807
IRIDIUM 73              
1 25344U 98032C   25010.68058530  .00001159  00000+0  28616-3 0  9994
2 25344  86.4429 113.7223 0002347 110.1294 250.0164 14.51338829408011
IRIDIUM 82              
1 25467U 98051A   25010.52976292  .00030833  00000+0  11609-2 0  9992
2 25467  86.3722 186.5865 0103146 170.7928 189.5242 15.22022348399890
